MONITOR-3 (RS58S)       
1 57180U 23091Q   26165.51301533  .00010387  00000+0  38432-3 0  9998
2 57180  97.5090 228.9390 0013114 108.9530 251.3132 15.27794971163887
MONITOR-4 (RS57S)       
1 57182U 23091S   26165.62320489  .00009248  00000+0  34163-3 0  9994
2 57182  97.5083 229.0213 0013120 109.0144 251.2517 15.27882593163904
MONITOR-2 (RS39S)       
1 57184U 23091U   26165.61164867  .00004363  00000+0  21207-3 0  9999
2 57184  97.5076 223.9110 0012670 118.8694 241.3813 15.18889480163567
SVYATOBOR 1 (RS60S)     
1 57187U 23091X   26165.56855399  .00008557  00000+0  32933-3 0  9990
2 57187  97.5096 229.3709 0010902 102.2638 257.9822 15.26576511163916
HORS 1                  
1 57188U 23091Y   26165.61981886  .00008961  00000+0  34367-3 0  9990
2 57188  97.5073 229.1851 0010369 101.8942 258.3460 15.26682513163922
VIZARD-METEO (RS38S)    
1 57189U 23091Z   26165.60689903  .00016129  00000+0  46225-3 0  9996
2 57189  97.5099 235.0400 0008410  85.3408 274.8796 15.35953804164294
SITRO-AIS 6 (CHIRKIN)   
1 57192U 23091AC  26165.62232990  .00009512  00000+0  37301-3 0  9995
2 57192  97.5074 228.6298 0013110 114.3392 245.9217 15.25892781163899
SITRO-AIS 8 (ANOKHIN)   
1 57193U 23091AD  26165.60537146  .00013694  00000+0  44355-3 0  9998
2 57193  97.5063 231.0581 0011810 107.8523 252.4008 15.32073906164057
SITRO-AIS 7 (FARTUSHNIY)
1 57194U 23091AE  26165.62495560  .00009211  00000+0  36472-3 0  9995
2 57194  97.5071 228.4588 0012962 115.2648 244.9934 15.25581383163883
AVION KALUGA 650        
1 57195U 23091AF  26165.59533826  .00005583  00000+0  25952-3 0  9999
2 57195  97.5093 225.1820 0011830 117.1024 243.1420 15.20327926163633
HORS 2                  
1 57196U 23091AG  26165.61665708  .00012579  00000+0  41103-3 0  9997
2 57196  97.5096 232.6109 0009432  95.4924 264.7393 15.31835984164136
A-SEANSAT-PG1           
1 57197U 23091AH  26165.60221459  .00017885  00000+0  49721-3 0  9997
2 57197  97.5088 235.1282 0008391  92.6584 267.5621 15.36882440164311
SITRO-AIS 10 (BURDAEV)  
1 57199U 23091AK  26165.51768092  .00017704  00000+0  46693-3 0  9993
2 57199  97.5089 235.9956 0007650  88.3983 271.8139 15.38523162164353
SITRO-AIS 9 (SHCHUKIN)  
1 57201U 23091AM  26165.60829214  .00018411  00000+0  49310-3 0  9996
2 57201  97.5087 235.8206 0007905  87.9389 272.2761 15.38037584164354
UTMN 2 (RS27S)          
1 57203U 23091AP  26165.57883135  .00011958  00000+0  38896-3 0  9992
2 57203  97.5095 232.7635 0009397  91.6041 268.6277 15.31995719164145
SITRO-AIS 12 (SMIRENNIY)
1 57204U 23091AQ  26165.59940365  .00018861  00000+0  50039-3 0  9997
2 57204  97.5099 236.2772 0007466  83.0593 277.1500 15.38328506164373
SITRO-AIS 11 (SHEFFER)  
1 57208U 23091AU  26165.61353160  .00018563  00000+0  48582-3 0  9994
2 57208  97.5097 236.5363 0007317  83.3466 276.8612 15.38753738164392
H2SAT (HEINRICH HERTZ)  
1 57213U 23093A   26165.61752455  .00000009  00000+0  00000+0 0  9997
2 57213   0.0574 111.2251 0000859  82.7537 291.9510  1.00272077 10894
KUZGTU 1 (RS47S)        
1 57217U 23091AV  26165.61399381  .00011336  00000+0  39427-3 0  9998
2 57217  97.5070 230.0676 0012351 105.9196 254.3406 15.29810490163989
QIANKUN-1               
1 57422U 23103B   26165.30806281  .00021010  18578-5  23362-4 0  9995
2 57422  96.1501 210.3549 0027977 142.6210 217.7030 16.08988716166834
FENGYUN 3F              
1 57490U 23111A   26165.57839838  .00000054  00000+0  45726-4 0  9990
2 57490  98.6835 235.6356 0001590  94.9925 265.1433 14.19938698148497
HJ-2F                   
1 57519U 23116A   26165.62318608  .00007499  00000+0  32818-3 0  9997
2 57519  97.3836 170.8864 0010075  59.6652 300.5579 15.22288462158367
XRISM                   
1 57800U 23137A   26165.28685809  .00004699  00000+0  25810-3 0  9998
2 57800  31.0031  18.3881 0007974 295.0173  64.9638 15.12442568152421
METEOR-M2 4             
1 59051U 24039A   26165.65111953 -.00000014  00000+0  13424-4 0  9992
2 59051  98.7009 124.9810 0007148 168.0715 192.0633 14.22429280118905
GRBBETA                 
1 60237U 24128C   26165.49893132  .00003250  00000+0  22870-3 0  9995
2 60237  61.9892 225.6981 0040977 134.1230 226.3246 15.06624478105867
TRANSPORTER-11 OBJECT A 
1 60468U 24149A   26165.47707554  .00008511  00000+0  27053-3 0  9997
2 60468  97.3738 245.4149 0002537 204.1804 155.9320 15.32868546101643
WARATAH SEED-1          
1 60469U 24149B   26165.17933781  .00013612  00000+0  39190-3 0  9991
2 60469  97.3697 245.7507 0001257 186.4432 173.6796 15.35879082101651
PHISAT 2                
1 60470U 24149C   26165.17158078  .00009225  00000+0  31034-3 0  9995
2 60470  97.3762 244.4041 0000654 179.6668 180.4573 15.31016531101534
LEMUR-2-TOMATOKECHUP    
1 60471U 24149D   26165.17575692  .00012135  00000+0  34861-3 0  9996
2 60471  97.3808 247.2145 0001147 181.7655 178.3585 15.35976496101707
